{
  "norad_id": 58928,
  "name": "PACE",
  "history": [
    {
      "epoch": "2026-03-28T18:23:33.066816Z",
      "apogee_km": 677.540637805896,
      "perigee_km": 673.4100424195258,
      "latitude_deg": -6.90638678880451e-05,
      "longitude_deg": -81.77605840493375,
      "height_km": 679.68531499,
      "semi_major_axis_km": 7053.612340112711,
      "eccentricity": 0.0002928,
      "inclination_deg": 98.0917,
      "raan_deg": 20.2938,
      "arg_perigee_deg": 126.1279,
      "mean_anomaly_deg": 234.0195,
      "mean_motion_rev_day": 14.65498508
    },
    {
      "epoch": "2026-03-28T18:23:33.069408Z",
      "apogee_km": 677.5434277693812,
      "perigee_km": 673.4083177588518,
      "latitude_deg": -7.6521625522311e-06,
      "longitude_deg": -81.77607791855084,
      "height_km": 679.6864279813402,
      "semi_major_axis_km": 7053.612872764116,
      "eccentricity": 0.00029312,
      "inclination_deg": 98.0917,
      "raan_deg": 20.2938,
      "arg_perigee_deg": 126.1027,
      "mean_anomaly_deg": 234.0448,
      "mean_motion_rev_day": 14.65498342
    },
    {
      "epoch": "2026-03-30T04:48:14.783040Z",
      "apogee_km": 677.5834260122583,
      "perigee_km": 673.3526737033535,
      "latitude_deg": 1.1116844799035206e-05,
      "longitude_deg": 122.0485796097861,
      "height_km": 679.6216606736114,
      "semi_major_axis_km": 7053.605049857806,
      "eccentricity": 0.0002999,
      "inclination_deg": 98.0919,
      "raan_deg": 21.7055,
      "arg_perigee_deg": 123.3068,
      "mean_anomaly_deg": 236.8423,
      "mean_motion_rev_day": 14.6550078
    },
    {
      "epoch": "2026-03-30T06:26:33.904608Z",
      "apogee_km": 677.578747701632,
      "perigee_km": 673.3564599857718,
      "latitude_deg": -7.504680563542564e-05,
      "longitude_deg": 97.46882191921122,
      "height_km": 679.6147573628683,
      "semi_major_axis_km": 7053.604603843702,
      "eccentricity": 0.0002993,
      "inclination_deg": 98.0919,
      "raan_deg": 21.7727,
      "arg_perigee_deg": 123.1722,
      "mean_anomaly_deg": 236.9768,
      "mean_motion_rev_day": 14.65500919
    },
    {
      "epoch": "2026-03-30T09:43:12.153792Z",
      "apogee_km": 677.581142099426,
      "perigee_km": 673.3529296961478,
      "latitude_deg": -1.5165928577281353e-05,
      "longitude_deg": 48.309248432370964,
      "height_km": 679.6063282434335,
      "semi_major_axis_km": 7053.604035897787,
      "eccentricity": 0.00029972,
      "inclination_deg": 98.0919,
      "raan_deg": 21.9071,
      "arg_perigee_deg": 122.8668,
      "mean_anomaly_deg": 237.2824,
      "mean_motion_rev_day": 14.65501096
    },
    {
      "epoch": "2026-03-30T19:33:06.874560Z",
      "apogee_km": 677.5901073307041,
      "perigee_km": 673.3394658220777,
      "latitude_deg": 8.827616108791146e-05,
      "longitude_deg": -99.16914934718687,
      "height_km": 679.5865412267451,
      "semi_major_axis_km": 7053.601786576391,
      "eccentricity": 0.00030131,
      "inclination_deg": 98.092,
      "raan_deg": 22.3105,
      "arg_perigee_deg": 122.1145,
      "mean_anomaly_deg": 238.0352,
      "mean_motion_rev_day": 14.65501797
    },
    {
      "epoch": "2026-03-31T13:34:37.196256Z",
      "apogee_km": 677.6130626552376,
      "perigee_km": 673.3089571495948,
      "latitude_deg": 2.224432520366067e-05,
      "longitude_deg": -9.546343516958563,
      "height_km": 679.5463510635642,
      "semi_major_axis_km": 7053.5980099024155,
      "eccentricity": 0.0003051,
      "inclination_deg": 98.092,
      "raan_deg": 23.0499,
      "arg_perigee_deg": 120.5408,
      "mean_anomaly_deg": 239.6097,
      "mean_motion_rev_day": 14.65502974
    },
    {
      "epoch": "2026-04-01T12:31:04.815264Z",
      "apogee_km": 677.6394467302516,
      "perigee_km": 673.2775032885065,
      "latitude_deg": 2.4771252909184826e-05,
      "longitude_deg": 6.337624569555343,
      "height_km": 679.4938752802428,
      "semi_major_axis_km": 7053.595475009379,
      "eccentricity": 0.0003092,
      "inclination_deg": 98.0922,
      "raan_deg": 23.9911,
      "arg_perigee_deg": 118.5938,
      "mean_anomaly_deg": 241.5577,
      "mean_motion_rev_day": 14.65503764
    },
    {
      "epoch": "2026-04-02T13:05:51.419328Z",
      "apogee_km": 677.6712298076309,
      "perigee_km": 673.2345217757575,
      "latitude_deg": -2.8987199591557414e-06,
      "longitude_deg": -2.357702952035792,
      "height_km": 679.4357449776553,
      "semi_major_axis_km": 7053.589875791694,
      "eccentricity": 0.0003145,
      "inclination_deg": 98.0922,
      "raan_deg": 24.9994,
      "arg_perigee_deg": 116.5473,
      "mean_anomaly_deg": 243.6053,
      "mean_motion_rev_day": 14.65505509
    },
    {
      "epoch": "2026-04-03T18:35:35.131488Z",
      "apogee_km": 677.6903446508804,
      "perigee_km": 673.1915726288598,
      "latitude_deg": -2.3553570370582145e-05,
      "longitude_deg": -84.79106991204608,
      "height_km": 679.3501326072892,
      "semi_major_axis_km": 7053.57795863987,
      "eccentricity": 0.0003189,
      "inclination_deg": 98.0923,
      "raan_deg": 26.2095,
      "arg_perigee_deg": 114.0852,
      "mean_anomaly_deg": 246.0685,
      "mean_motion_rev_day": 14.65509223
    },
    {
      "epoch": "2026-04-04T19:10:21.438336Z",
      "apogee_km": 677.6875755221481,
      "perigee_km": 673.1845744710699,
      "latitude_deg": 1.7219371717014742e-06,
      "longitude_deg": -93.48506487753728,
      "height_km": 679.2821310101538,
      "semi_major_axis_km": 7053.573074996609,
      "eccentricity": 0.0003192,
      "inclination_deg": 98.0923,
      "raan_deg": 27.2179,
      "arg_perigee_deg": 112.3163,
      "mean_anomaly_deg": 247.8379,
      "mean_motion_rev_day": 14.65510745
    },
    {
      "epoch": "2026-04-05T13:11:51.347904Z",
      "apogee_km": 677.7030227676814,
      "perigee_km": 673.163203971314,
      "latitude_deg": 2.427530693536958e-07,
      "longitude_deg": -3.86044845879601,
      "height_km": 679.2354592625054,
      "semi_major_axis_km": 7053.570113369497,
      "eccentricity": 0.00032181,
      "inclination_deg": 98.0923,
      "raan_deg": 27.9574,
      "arg_perigee_deg": 110.9425,
      "mean_anomaly_deg": 249.2123,
      "mean_motion_rev_day": 14.65511668
    },
    {
      "epoch": "2026-04-05T19:45:07.663968Z",
      "apogee_km": 677.7107224304063,
      "perigee_km": 673.1527063271751,
      "latitude_deg": -6.314385217745373e-05,
      "longitude_deg": -102.17870865799084,
      "height_km": 679.2167139723254,
      "semi_major_axis_km": 7053.568714378791,
      "eccentricity": 0.0003231,
      "inclination_deg": 98.0923,
      "raan_deg": 28.2263,
      "arg_perigee_deg": 110.39,
      "mean_anomaly_deg": 249.765,
      "mean_motion_rev_day": 14.65512104
    },
    {
      "epoch": "2026-04-06T02:18:23.973984Z",
      "apogee_km": 677.7245565046924,
      "perigee_km": 673.1379032275399,
      "latitude_deg": -1.3860704358067935e-05,
      "longitude_deg": 159.50304041198788,
      "height_km": 679.1987782939767,
      "semi_major_axis_km": 7053.568229866116,
      "eccentricity": 0.00032513,
      "inclination_deg": 98.0923,
      "raan_deg": 28.4952,
      "arg_perigee_deg": 109.7949,
      "mean_anomaly_deg": 250.3605,
      "mean_motion_rev_day": 14.65512255
    },
    {
      "epoch": "2026-04-07T12:43:04.502208Z",
      "apogee_km": 677.7519048935465,
      "perigee_km": 673.0986698525667,
      "latitude_deg": -9.503177844925739e-06,
      "longitude_deg": 3.332748256252199,
      "height_km": 679.0947415873786,
      "semi_major_axis_km": 7053.562287373056,
      "eccentricity": 0.00032985,
      "inclination_deg": 98.0922,
      "raan_deg": 29.907,
      "arg_perigee_deg": 106.9617,
      "mean_anomaly_deg": 253.1948,
      "mean_motion_rev_day": 14.65514107
    },
    {
      "epoch": "2026-04-07T17:38:01.706208Z",
      "apogee_km": 677.7541481703875,
      "perigee_km": 673.094565538051,
      "latitude_deg": -2.775083614090353e-05,
      "longitude_deg": -70.40578819232675,
      "height_km": 679.080562420745,
      "semi_major_axis_km": 7053.561356854219,
      "eccentricity": 0.0003303,
      "inclination_deg": 98.0922,
      "raan_deg": 30.1087,
      "arg_perigee_deg": 106.5981,
      "mean_anomaly_deg": 253.5585,
      "mean_motion_rev_day": 14.65514397
    },
    {
      "epoch": "2026-04-08T06:44:34.232064Z",
      "apogee_km": 677.771145674421,
      "perigee_km": 673.0747443918181,
      "latitude_deg": 7.047328939586749e-05,
      "longitude_deg": 92.95810293619434,
      "height_km": 679.0379892323107,
      "semi_major_axis_km": 7053.559945033119,
      "eccentricity": 0.00033291,
      "inclination_deg": 98.0922,
      "raan_deg": 30.6465,
      "arg_perigee_deg": 105.4225,
      "mean_anomaly_deg": 254.7347,
      "mean_motion_rev_day": 14.65514837
    },
    {
      "epoch": "2026-04-09T18:47:33.596736Z",
      "apogee_km": 677.8002500140001,
      "perigee_km": 673.0320480852433,
      "latitude_deg": 3.3596413746475986e-05,
      "longitude_deg": -87.79066279110172,
      "height_km": 678.9222541851125,
      "semi_major_axis_km": 7053.553149049621,
      "eccentricity": 0.000338,
      "inclination_deg": 98.0923,
      "raan_deg": 32.1256,
      "arg_perigee_deg": 102.4928,
      "mean_anomaly_deg": 257.6654,
      "mean_motion_rev_day": 14.65516955
    }
  ]
}